{
"type": "FeatureCollection",
"name": "federal_NS",
"crs": { "type": "name", "properties": { "name": "urn:ogc:def:crs:OGC:1.3:CRS84" } },
"features": [
{ "type": "Feature", "properties": { "FED_NUM": 11001, "ED_NAMEE": "Cardigan", "ED_NAMEF": "Cardigan", "REP_ORDER": "2023", "SHAPE_AREA": 4089404183.3499999, "SHAPE_LEN": 288146.72198500001, "NUM_CF": null, "CF_NOMFR": null, "CF_NOMAN": null, "DEC_REP": null, "PROV_CODE": "11", "PROV_NAME": "NS" }, "geometry": { "type": "Polygon", "coordinates": [ [ [ -63.036362385194856, 46.375352405925959 ], [ -63.036721202676581, 46.377604606566734 ], [ -63.03672119569346, 46.377667610524327 ], [ -63.036812605958438, 46.378189609886697 ], [ -63.036916899328304, 46.37855849289852 ], [ -63.036955906367034, 46.378648505760999 ], [ -63.037893421371869, 46.380457093851092 ], [ -63.038297097165596, 46.381195005643406 ], [ -63.038454811553045, 46.381505197832553 ], [ -63.038466292916198, 46.381527901907532 ], [ -63.038548324256553, 46.381681508359001 ], [ -63.026728020728015, 46.382805743000695 ], [ -63.020646338497947, 46.383381479661459 ], [ -63.014713961067898, 46.383942665980683 ], [ -63.010137304595389, 46.384375332823772 ], [ -63.00609777310148, 46.384757037932189 ], [ -62.997098150719417, 46.385606727930536 ], [ -62.992160670874874, 46.386072538112323 ], [ -62.996932709294434, 46.395057976902159 ], [ -62.999999996772473, 46.397729173494078 ], [ -63.004108567902179, 46.401306554928013 ], [ -63.017852902513816, 46.405105478587686 ], [ -63.036482124126344, 46.410069279039057 ], [ -63.039290863296699, 46.41197202552474 ], [ -63.041086064702803, 46.415111613909602 ], [ -63.046574450005181, 46.424707337880797 ], [ -63.047645211940853, 46.426775558307085 ], [ -63.041776337459595, 46.427415655292151 ], [ -63.024832790967686, 46.42940065386933 ], [ -63.015250409792479, 46.430450913127558 ], [ -63.001940330117847, 46.431873854888771 ], [ -62.999999998129518, 46.432156605413368 ], [ -62.990440060602474, 46.433549044878951 ], [ -62.98020962397927, 46.434989178320663 ], [ -62.966577238308886, 46.436859739096533 ], [ -62.958564480252257, 46.438078376134563 ], [ -62.9456986302405, 46.439797602310321 ], [ -62.93972561473548, 46.440735676519438 ], [ -62.937594779359358, 46.4409330629192 ], [ -62.936789344432498, 46.441045774273398 ], [ -62.86539983614604, 46.437303517585839 ], [ -62.8651852892759, 46.437293229031049 ], [ -62.834749385360745, 46.438233406148157 ], [ -62.802775434027851, 46.439210206518716 ], [ -62.801857017633324, 46.439390133270997 ], [ -62.774981497137581, 46.444560348632571 ], [ -62.73235629851029, 46.452742063899784 ], [ -62.647387495221736, 46.468107442730748 ], [ -62.640461265438127, 46.468918874126615 ], [ -62.634846984303458, 46.469262436797379 ], [ -62.615692102364484, 46.470849435670402 ], [ -62.581274160786784, 46.473284384908325 ], [ -62.566177891039885, 46.474584637928373 ], [ -62.55071958391256, 46.475627076388442 ], [ -62.531422151244435, 46.476871092331649 ], [ -62.512999103240176, 46.478173434557135 ], [ -62.503510493971504, 46.478728124103867 ], [ -62.500001146628925, 46.478963843916837 ], [ -62.500000010760559, 46.478963936447272 ], [ -62.489968383671588, 46.479637045845834 ], [ -62.481124296382838, 46.480252272303467 ], [ -62.471403089422502, 46.480167383624341 ], [ -62.451730413645947, 46.479994740252053 ], [ -62.451645256060402, 46.479987894492048 ], [ -62.43998095899299, 46.479048905972569 ], [ -62.423164250537788, 46.477945165237053 ], [ -62.413151865129528, 46.477242395606645 ], [ -62.40694724045553, 46.476806354214659 ], [ -62.393495046578245, 46.475664180924056 ], [ -62.392412468321574, 46.475719299040868 ], [ -62.316182775805395, 46.478890101136393 ], [ -62.289041366594923, 46.481009630347593 ], [ -62.249870265557824, 46.484054144039789 ], [ -62.240228558344093, 46.484800920625595 ], [ -62.222326217931695, 46.486184757902365 ], [ -62.170568941038759, 46.490165530217055 ], [ -62.169771052586974, 46.490134775188139 ], [ -62.157283536844076, 46.489652688571965 ], [ -62.134299442615685, 46.488760958842519 ], [ -62.110615294856203, 46.487836033472107 ], [ -62.08906254206893, 46.486989020439651 ], [ -62.079253374126971, 46.486601846807062 ], [ -62.066183517264321, 46.486084327550422 ], [ -62.044322040998289, 46.485214532242757 ], [ -62.029085616929805, 46.484605239669698 ], [ -62.00000000587157, 46.479460846884962 ], [ -61.999993527895001, 46.479459717064621 ], [ -61.996762217694865, 46.478887558800196 ], [ -61.996604139954478, 46.478859550959662 ], [ -61.982083248573879, 46.474913435732944 ], [ -61.966013431925468, 46.47054298317672 ], [ -61.957466356428434, 46.465529185160634 ], [ -61.954992977127425, 46.457011877476276 ], [ -61.9686039451936, 46.441666779850124 ], [ -61.980375786243521, 46.429937307397722 ], [ -61.992489667060383, 46.417859554825903 ], [ -61.999992165537442, 46.413210098307985 ], [ -62.000000016654603, 46.413205240516589 ], [ -62.000002066281709, 46.413203963878622 ], [ -62.026041314739054, 46.397055258183194 ], [ -62.036033660497949, 46.390853498706349 ], [ -62.040592934826932, 46.388022901280131 ], [ -62.052544855173004, 46.380599974940679 ], [ -62.064612789877906, 46.373101131035376 ], [ -62.077514453861333, 46.365079879491923 ], [ -62.088789022866685, 46.358066586266418 ], [ -62.104572954100504, 46.348242560173368 ], [ -62.104621487935596, 46.348212349465619 ], [ -62.113072388364671, 46.342949668787753 ], [ -62.114979104930022, 46.341762028418103 ], [ -62.121712267121609, 46.337697748879059 ], [ -62.128804390491311, 46.33341554974713 ], [ -62.145345979111312, 46.32342271345555 ], [ -62.17584575910012, 46.304979095995272 ], [ -62.188690804508774, 46.297204328834042 ], [ -62.21641998876062, 46.280405931887337 ], [ -62.221987328234277, 46.275629331181079 ], [ -62.247780111883451, 46.259568642024064 ], [ -62.25838472556454, 46.251574830616221 ], [ -62.260074256620136, 46.249241356232375 ], [ -62.278581664810197, 46.21904729992071 ], [ -62.300313616289856, 46.18964755952419 ], [ -62.300388348200357, 46.189546386040085 ], [ -62.308459986919154, 46.17978430081029 ], [ -62.318706995704886, 46.165007426928234 ], [ -62.346618258105778, 46.126570417191687 ], [ -62.355968440395515, 46.113678711553433 ], [ -62.382013255157474, 46.077728201921353 ], [ -62.39860034278334, 46.054277150332787 ], [ -62.406297238317144, 46.043386525619233 ], [ -62.420163821902626, 46.023752333631336 ], [ -62.424984464133836, 46.016922438772106 ], [ -62.439335725520728, 46.000062918633169 ], [ -62.439340164622614, 46.000057682582792 ], [ -62.43934447368045, 46.000052628244028 ], [ -62.440842058761184, 45.99829251090447 ], [ -62.44117033014755, 45.997906675205634 ], [ -62.461619859642632, 45.98769181609704 ], [ -62.489943183979719, 45.973529281471421 ], [ -62.500000009198871, 45.968496483202998 ], [ -62.499999996728043, 45.958021197561592 ], [ -62.499999979585986, 45.943341599669978 ], [ -62.500000013559522, 45.861271814149575 ], [ -62.540227941536507, 45.86077056063813 ], [ -62.549793036651209, 45.860566419175008 ], [ -62.550047057320221, 45.860560975904335 ], [ -62.550301077926967, 45.860555531924987 ], [ -62.630173091342193, 45.858810898584572 ], [ -62.630418682703947, 45.85880543610584 ], [ -62.630424122803248, 45.858819771538869 ], [ -62.641988872329229, 45.858682200951499 ], [ -62.642242967829631, 45.858679166126826 ], [ -62.695759565281882, 45.858023353404683 ], [ -62.698835696377252, 45.858040397780236 ], [ -62.699089817642282, 45.858041798658377 ], [ -62.71073235415345, 45.858106757104331 ], [ -62.746714070810469, 45.858292358641286 ], [ -62.746968194953041, 45.858293625866608 ], [ -62.747222319110058, 45.858294892382524 ], [ -62.754407426225619, 45.858330503339488 ], [ -62.767351261505112, 45.859835341781164 ], [ -62.767601955334072, 45.859864462483642 ], [ -62.767852649491552, 45.85989358249946 ], [ -62.777275293774302, 45.860987772592594 ], [ -62.777526000604233, 45.86101686611353 ], [ -62.777776707762392, 45.861045958947749 ], [ -62.789771246545094, 45.862437261797481 ], [ -62.790021969728471, 45.862466321090828 ], [ -62.790272693239771, 45.8624953796974 ], [ -62.807682299310123, 45.864511737460653 ], [ -62.807933045900853, 45.86454074769081 ], [ -62.808183792819008, 45.864569757234094 ], [ -62.818458863956735, 45.865758108955418 ], [ -62.827606400073151, 45.867320248127079 ], [ -62.827853314844987, 45.867362405904984 ], [ -62.828100230085312, 45.86740456302109 ], [ -62.845549166425975, 45.870381389643235 ], [ -62.845796115223301, 45.870423499327117 ], [ -62.846043064488711, 45.870465608349029 ], [ -62.86844924861898, 45.874282601496958 ], [ -62.872293516429195, 45.875248254102715 ], [ -62.872532744220401, 45.875308339798835 ], [ -62.872771972658683, 45.875368424882339 ], [ -62.897212092685997, 45.881502781368653 ], [ -62.897451387845514, 45.881562803246368 ], [ -62.897690683651632, 45.881622824511147 ], [ -62.912010538053359, 45.885213178808101 ], [ -62.922885046652631, 45.889424901355618 ], [ -62.923107453840927, 45.889511033467059 ], [ -62.92332986189178, 45.889597165067997 ], [ -62.950323367685591, 45.900042868639417 ], [ -62.950545881251067, 45.900128937758254 ], [ -62.95076839567907, 45.900215006366139 ], [ -62.970232490808876, 45.90773919480354 ], [ -62.972400558345889, 45.909195074893141 ], [ -62.972583898669185, 45.909318195408545 ], [ -62.972767272669721, 45.909441326754902 ], [ -63.000000006117453, 45.92771635882734 ], [ -63.028374632462771, 45.946734620721337 ], [ -63.039678750603507, 45.956214106795009 ], [ -63.039841634149518, 45.956350673026961 ], [ -63.040004518698368, 45.956487239049608 ], [ -63.058914374178471, 45.972333304309664 ], [ -63.086704431519529, 45.991023793080032 ], [ -63.091674986500458, 45.9943393768636 ], [ -63.091859155153557, 45.994462211038091 ], [ -63.09204332482723, 45.994585044906835 ], [ -63.100283763549932, 46.000080055125537 ], [ -63.100287057097759, 46.000082242632772 ], [ -63.104856306606166, 46.003128338742847 ], [ -63.132503195032776, 46.011157663963267 ], [ -63.145974688992609, 46.015135447023532 ], [ -63.146209150013647, 46.015204651424945 ], [ -63.146205932775239, 46.015208924561158 ], [ -63.132950866167583, 46.032885024526088 ], [ -63.11606404328618, 46.056341775104116 ], [ -63.099721130400802, 46.0790186672833 ], [ -63.102233131479252, 46.091314978054186 ], [ -63.109138232011723, 46.125083447205384 ], [ -63.112600877233284, 46.141999423553649 ], [ -63.120003798132302, 46.178124846046671 ], [ -63.121980830914943, 46.187763457977084 ], [ -63.122925095830198, 46.191679840074514 ], [ -63.123768652474261, 46.19283054226959 ], [ -63.12788625546419, 46.198446689774691 ], [ -63.12798890821098, 46.198541570961261 ], [ -63.132388012997367, 46.202607143918506 ], [ -63.136303614837416, 46.206225128398373 ], [ -63.144331816062923, 46.210690367105855 ], [ -63.144677926029246, 46.210901885839242 ], [ -63.138115727559445, 46.215465808958257 ], [ -63.136348206188643, 46.217143511642909 ], [ -63.130995053965826, 46.220843456161113 ], [ -63.13003724177765, 46.221491992220614 ], [ -63.125868258786454, 46.224314523709815 ], [ -63.125338497812322, 46.224673162130991 ], [ -63.121466249897644, 46.227338626977698 ], [ -63.120824727847797, 46.22778018453117 ], [ -63.119915157506348, 46.228410842290401 ], [ -63.11887846235382, 46.229129578268591 ], [ -63.117312261547291, 46.230215379064383 ], [ -63.115985359103533, 46.23072784676009 ], [ -63.110330262740113, 46.232911523350154 ], [ -63.110305222509105, 46.23292118986501 ], [ -63.109069468969942, 46.233398297707822 ], [ -63.104765951272867, 46.236213354599471 ], [ -63.10472141436351, 46.236242493065724 ], [ -63.101027518434989, 46.238658332147317 ], [ -63.099596340112932, 46.24012321776997 ], [ -63.095986047960068, 46.243818001646687 ], [ -63.093890509026764, 46.245962279905719 ], [ -63.089882332506569, 46.250062992982855 ], [ -63.089867201211867, 46.250078486812015 ], [ -63.089778699729479, 46.250168999976083 ], [ -63.08537134942641, 46.254883162493208 ], [ -63.082746267687277, 46.257690438434231 ], [ -63.081922026563269, 46.258313462437833 ], [ -63.079391382677144, 46.260226220679648 ], [ -63.073680232273766, 46.264542133728789 ], [ -63.065051529623069, 46.270991609289268 ], [ -63.055425132277868, 46.278183802017615 ], [ -63.054008173154564, 46.279242194616479 ], [ -63.044354775005949, 46.284904197304989 ], [ -63.037275200022016, 46.289055084297743 ], [ -63.029579380760779, 46.293565865605771 ], [ -63.026291228266388, 46.295390345182106 ], [ -63.02531111843507, 46.295765152083213 ], [ -63.020345367137061, 46.297663944316419 ], [ -63.010760806734289, 46.302831772207639 ], [ -63.004971269818313, 46.305758440336184 ], [ -63.004366809700009, 46.306063953535848 ], [ -63.00226531240385, 46.307098552066734 ], [ -63.000425290138992, 46.307111081249801 ], [ -63.000000000578936, 46.307205194614006 ], [ -62.994208486642393, 46.308486256064484 ], [ -62.989789882141245, 46.309463353100504 ], [ -62.990251424329976, 46.310707748528323 ], [ -62.990082920728511, 46.311698365652006 ], [ -62.989156426321479, 46.312799315273324 ], [ -62.988077991853579, 46.31390127401604 ], [ -62.988722695323794, 46.314381207586663 ], [ -62.989803607874137, 46.315637169812945 ], [ -62.989334216347856, 46.316840377405882 ], [ -62.98779846975782, 46.317840132217057 ], [ -62.987357320664891, 46.318895749358369 ], [ -62.986692948212024, 46.319194921821087 ], [ -62.985950859012064, 46.320463102314925 ], [ -62.986421208895848, 46.321512652739386 ], [ -62.988202285874785, 46.322848237183294 ], [ -62.990636130849609, 46.3230425124314 ], [ -62.992337185964338, 46.322988998935998 ], [ -62.99479789373305, 46.322930346743291 ], [ -62.996480991288365, 46.32376113099501 ], [ -62.998389051129379, 46.327601153728295 ], [ -63.000655092624491, 46.327257691974914 ], [ -63.000835784108006, 46.327549494511032 ], [ -63.000947897263053, 46.327676803019251 ], [ -63.001014383562747, 46.327733008402838 ], [ -63.001168700090986, 46.327836906852049 ], [ -63.0012499096106, 46.327878290263634 ], [ -63.001347486240043, 46.327928201790513 ], [ -63.001945382582669, 46.328172904047655 ], [ -63.013717450822192, 46.326232659625084 ], [ -63.014667619063268, 46.328740701814468 ], [ -63.015057295788708, 46.328569696845953 ], [ -63.015356115330178, 46.328479593065445 ], [ -63.01544699865731, 46.328434613197629 ], [ -63.016226397463953, 46.328173490135178 ], [ -63.01707082021867, 46.327921398881017 ], [ -63.017213794968136, 46.328119409092743 ], [ -63.017369684901311, 46.328290307157509 ], [ -63.018279391763969, 46.32919018644241 ], [ -63.018487411208952, 46.329433201735498 ], [ -63.018591387398125, 46.329604098324332 ], [ -63.018825406835191, 46.330126110004009 ], [ -63.018851402044362, 46.330225092297702 ], [ -63.018877480556, 46.330423102050695 ], [ -63.018877700152764, 46.331251113173799 ], [ -63.01891679201416, 46.331467005794025 ], [ -63.019046906190844, 46.331934988061732 ], [ -63.0191378775462, 46.332088003835473 ], [ -63.019332887190529, 46.332493006852673 ], [ -63.02046421978735, 46.335012693043971 ], [ -63.020581201554073, 46.335201689750299 ], [ -63.020932194609003, 46.335651596241554 ], [ -63.021114208478068, 46.335840602035759 ], [ -63.021231204046913, 46.335930488516219 ], [ -63.021491087628291, 46.336173492264457 ], [ -63.021595102706264, 46.336245507540688 ], [ -63.021617201715593, 46.336270612822929 ], [ -63.02172069348115, 46.33638862843403 ], [ -63.02181610643396, 46.336497412792191 ], [ -63.021969884938564, 46.336800880768649 ], [ -63.022375417163744, 46.338000302702461 ], [ -63.022388500430559, 46.338207299908518 ], [ -63.022440616168609, 46.33841429531406 ], [ -63.022505582392604, 46.338612196482728 ], [ -63.022544714208799, 46.338801207593278 ], [ -63.022605512912349, 46.338958904961245 ], [ -63.02264868962957, 46.339071206690718 ], [ -63.022921793201952, 46.339629095378257 ], [ -63.023442002182975, 46.340565012243374 ], [ -63.024105290450159, 46.341905794819503 ], [ -63.024755690439434, 46.343282710758054 ], [ -63.025718199101668, 46.345253413336962 ], [ -63.02603038608995, 46.345910293654107 ], [ -63.026967212232854, 46.348106101520663 ], [ -63.027175313221505, 46.348493003982412 ], [ -63.027253400222172, 46.348682006538006 ], [ -63.027812791382139, 46.349815799486343 ], [ -63.027929895853468, 46.350094796527273 ], [ -63.028085992156761, 46.350364694425146 ], [ -63.028606306251319, 46.351012599081756 ], [ -63.02891828761949, 46.351273498498294 ], [ -63.029152382424762, 46.35146250660457 ], [ -63.030270490268428, 46.352236090362851 ], [ -63.030634614916281, 46.352533006928482 ], [ -63.030907705216094, 46.35284798945424 ], [ -63.030985797971326, 46.352919888898725 ], [ -63.031193906381503, 46.35318090977718 ], [ -63.031414982827776, 46.353540807760844 ], [ -63.031849418414062, 46.354171693879529 ], [ -63.033236311112645, 46.356186201401222 ], [ -63.03345750605876, 46.356555205426019 ], [ -63.033587687337494, 46.35684309197373 ], [ -63.033639792708726, 46.35704110492243 ], [ -63.033665903662353, 46.357239088142599 ], [ -63.033653101158116, 46.357545087628822 ], [ -63.03358831004509, 46.357950113149975 ], [ -63.033523496578383, 46.358148111468275 ], [ -63.033316011378552, 46.359030100842261 ], [ -63.033212412720253, 46.359588202483465 ], [ -63.033186595430131, 46.35998409538697 ], [ -63.033199804442724, 46.36029909892801 ], [ -63.033225899268963, 46.360497107894233 ], [ -63.033356183753121, 46.361010095736319 ], [ -63.034932303567857, 46.365995488412864 ], [ -63.03508870521005, 46.366553392016179 ], [ -63.035101717637524, 46.366652399160721 ], [ -63.035153900052045, 46.366832397765251 ], [ -63.035258301199953, 46.367507286924102 ], [ -63.035284385139242, 46.367597297925812 ], [ -63.035637108371319, 46.370243115826497 ], [ -63.035646256315772, 46.370310986684139 ], [ -63.035865985981708, 46.371943598382714 ], [ -63.036120479707364, 46.373833906590946 ], [ -63.036362385194856, 46.375352405925959 ] ] ] } },
{ "type": "Feature", "properties": { "FED_NUM": 11002, "ED_NAMEE": "Charlottetown", "ED_NAMEF": "Charlottetown", "REP_ORDER": "2023", "SHAPE_AREA": 55173797.242799997, "SHAPE_LEN": 39581.969385900004, "NUM_CF": null, "CF_NOMFR": null, "CF_NOMAN": null, "DEC_REP": null, "PROV_CODE": "11", "PROV_NAME": "NS" }, "geometry": { "type": "Polygon", "coordinates": [ [ [ -63.193059007793082, 46.296332208946531 ], [ -63.194144104828446, 46.296913820014325 ], [ -63.194511386848134, 46.297111271704019 ], [ -63.185964555253015, 46.299038219775014 ], [ -63.186712764742872, 46.299526052022891 ], [ -63.187752897331599, 46.30163541068994 ], [ -63.181488304511106, 46.303156299845661 ], [ -63.180975593241286, 46.302152012081201 ], [ -63.181095217786847, 46.301612219048515 ], [ -63.180852101718287, 46.300483773654726 ], [ -63.180629439223004, 46.299600953295787 ], [ -63.179805056770846, 46.299824572938718 ], [ -63.178361867237058, 46.296630918877611 ], [ -63.17788142666447, 46.29676774777711 ], [ -63.177106161309609, 46.295220872987819 ], [ -63.175946514757754, 46.29558466926423 ], [ -63.175380915623087, 46.294424576332553 ], [ -63.174153103884628, 46.295301560126937 ], [ -63.173914163423788, 46.294768901632224 ], [ -63.173775104499065, 46.294808621523444 ], [ -63.173765997670813, 46.294788365637274 ], [ -63.167534678094626, 46.29610562086576 ], [ -63.157582094345173, 46.298291540238701 ], [ -63.155224878352371, 46.298824987994095 ], [ -63.15476660045514, 46.298052340352292 ], [ -63.154865481261538, 46.297033897446568 ], [ -63.155032723405597, 46.296724335087376 ], [ -63.156087458039934, 46.294748642745041 ], [ -63.156170851217496, 46.294583309863903 ], [ -63.156526930257328, 46.293878366614614 ], [ -63.156421590234935, 46.293118869461864 ], [ -63.156056813732768, 46.292404569590616 ], [ -63.155197041859182, 46.291756140027474 ], [ -63.15231596172584, 46.290783985946597 ], [ -63.151458358622783, 46.290286511637802 ], [ -63.150871281918974, 46.288804142167407 ], [ -63.150418164113127, 46.28824964122358 ], [ -63.149560295013629, 46.287725492028564 ], [ -63.148350370004756, 46.287347994140852 ], [ -63.148115630717484, 46.287351300289025 ], [ -63.147286816249334, 46.285515586071519 ], [ -63.144456723637973, 46.285964914963692 ], [ -63.143625072643601, 46.284906058303307 ], [ -63.142841321588392, 46.285119944916133 ], [ -63.142126329238323, 46.28417293520419 ], [ -63.141404689485576, 46.284366285658407 ], [ -63.137578051111518, 46.285391656206862 ], [ -63.137716907892454, 46.285813610011822 ], [ -63.138387988472481, 46.28785260930168 ], [ -63.138402713433344, 46.287929505065044 ], [ -63.139474609348603, 46.291442197296391 ], [ -63.139575743031173, 46.291789488675768 ], [ -63.130822925337704, 46.293595724408831 ], [ -63.128595519425353, 46.290291474216694 ], [ -63.127663158656205, 46.290508829469438 ], [ -63.127584408254862, 46.290527194996621 ], [ -63.127045321813824, 46.292823126207708 ], [ -63.128500923701232, 46.295895765695626 ], [ -63.129014258519284, 46.297109917790969 ], [ -63.132549125678658, 46.30469524046962 ], [ -63.124677407066791, 46.306232138726244 ], [ -63.124567994291453, 46.306142730525913 ], [ -63.122062506762667, 46.303899897925632 ], [ -63.115291666788032, 46.305261327642043 ], [ -63.114159011526318, 46.305489013819965 ], [ -63.112601904709607, 46.305792957946458 ], [ -63.111082134899405, 46.302828976510632 ], [ -63.107792026744818, 46.303446531681857 ], [ -63.106945332839146, 46.302156058534209 ], [ -63.10468711153203, 46.302355767772418 ], [ -63.1037556718573, 46.300658897305794 ], [ -63.103237354503293, 46.300719045950942 ], [ -63.10064734867651, 46.301019437305179 ], [ -63.097682649867004, 46.294193307994171 ], [ -63.088838640842539, 46.295698088553777 ], [ -63.08767392452279, 46.29311647213386 ], [ -63.087422486971143, 46.292710991866691 ], [ -63.087360906297391, 46.292652488951987 ], [ -63.087054910518759, 46.29236219839818 ], [ -63.086328578842405, 46.291889401890309 ], [ -63.086234585455017, 46.291826898399577 ], [ -63.085979323589939, 46.291657094102987 ], [ -63.086378690461984, 46.291336095793362 ], [ -63.086750685293524, 46.29103540396418 ], [ -63.086854408487412, 46.290972301196824 ], [ -63.087398995773086, 46.290521904622622 ], [ -63.087593503343889, 46.290386705074937 ], [ -63.087723192413506, 46.290269591845117 ], [ -63.089227301043756, 46.28911649368937 ], [ -63.090277499288405, 46.288287689480981 ], [ -63.090892814452879, 46.287741295326796 ], [ -63.090915377389123, 46.287721262701851 ], [ -63.085487119960433, 46.278402431694495 ], [ -63.085441054220503, 46.278287016649458 ], [ -63.082484872237295, 46.270871699545459 ], [ -63.082464955182267, 46.270857100752494 ], [ -63.08235468257476, 46.270777847194253 ], [ -63.082256098720777, 46.270706970696665 ], [ -63.073680232273766, 46.264542133728789 ], [ -63.079391382677144, 46.260226220679648 ], [ -63.081922026563269, 46.258313462437833 ], [ -63.082746267687277, 46.257690438434231 ], [ -63.08537134942641, 46.254883162493208 ], [ -63.089778699729479, 46.250168999976083 ], [ -63.089867201211867, 46.250078486812015 ], [ -63.089882332506569, 46.250062992982855 ], [ -63.093890509026764, 46.245962279905719 ], [ -63.095986047960068, 46.243818001646687 ], [ -63.099596340112932, 46.24012321776997 ], [ -63.101027518434989, 46.238658332147317 ], [ -63.10472141436351, 46.236242493065724 ], [ -63.104765951272867, 46.236213354599471 ], [ -63.109069468969942, 46.233398297707822 ], [ -63.110305222509105, 46.23292118986501 ], [ -63.110330262740113, 46.232911523350154 ], [ -63.115985359103533, 46.23072784676009 ], [ -63.117312261547291, 46.230215379064383 ], [ -63.11887846235382, 46.229129578268591 ], [ -63.119915157506348, 46.228410842290401 ], [ -63.120824727847797, 46.22778018453117 ], [ -63.121466249897644, 46.227338626977698 ], [ -63.125338497812322, 46.224673162130991 ], [ -63.125868258786454, 46.224314523709815 ], [ -63.13003724177765, 46.221491992220614 ], [ -63.130995053965826, 46.220843456161113 ], [ -63.136348206188643, 46.217143511642909 ], [ -63.14552346709403, 46.225848018639219 ], [ -63.14815734422308, 46.228346012759282 ], [ -63.148794868966192, 46.228950627068706 ], [ -63.149463080970186, 46.229547854727002 ], [ -63.151488634991324, 46.231358011946384 ], [ -63.158239352682699, 46.237389603582436 ], [ -63.158271651487667, 46.237418453512696 ], [ -63.159478831108416, 46.238369198054379 ], [ -63.160907974910202, 46.239494683448136 ], [ -63.166072332982786, 46.243561157258469 ], [ -63.16770384303306, 46.244518890578931 ], [ -63.17666141722421, 46.249582375012928 ], [ -63.177346540880322, 46.24996956666326 ], [ -63.181167157913009, 46.25505889522168 ], [ -63.183065596082507, 46.257746665425685 ], [ -63.18347582809389, 46.258327461613128 ], [ -63.183529300714881, 46.25840315863725 ], [ -63.184994698600605, 46.260477596243298 ], [ -63.185757397695795, 46.261700635720686 ], [ -63.188029167162099, 46.265343181758368 ], [ -63.191419364963842, 46.268854829759711 ], [ -63.191639247363369, 46.27175218620976 ], [ -63.192135495582754, 46.271519412418392 ], [ -63.192271786200003, 46.271327893205502 ], [ -63.192774696175043, 46.27104199096155 ], [ -63.193680805319588, 46.270838097429966 ], [ -63.194589692414738, 46.270908785935333 ], [ -63.195111597628177, 46.27102540779719 ], [ -63.196480690801245, 46.271513687403001 ], [ -63.196718006422827, 46.271694800657784 ], [ -63.196726900871305, 46.272073186219728 ], [ -63.196523422481476, 46.272887995014365 ], [ -63.196486318175147, 46.273157694503034 ], [ -63.195811401641301, 46.274533793089901 ], [ -63.195732398800381, 46.274726899488336 ], [ -63.195737123104131, 46.275184694809901 ], [ -63.196261209083595, 46.276244795292612 ], [ -63.196492573258425, 46.276561936378656 ], [ -63.19627228708066, 46.276491369903482 ], [ -63.192641438740338, 46.27724623620891 ], [ -63.192796377365305, 46.277743763756355 ], [ -63.192859246459115, 46.278382925225365 ], [ -63.193082954639785, 46.278953732580355 ], [ -63.191968123369605, 46.279202344316843 ], [ -63.189491237936011, 46.279666588441081 ], [ -63.189429593965805, 46.279821656383213 ], [ -63.189333774865915, 46.280064921077617 ], [ -63.189270079275687, 46.280226133665565 ], [ -63.189070183675547, 46.280731831896894 ], [ -63.18901467880962, 46.280872388160645 ], [ -63.188981287119233, 46.280956895493553 ], [ -63.18898045013912, 46.281002185412277 ], [ -63.188971226191981, 46.281460332433234 ], [ -63.188963356959256, 46.281871048836344 ], [ -63.188960503830394, 46.282026596973729 ], [ -63.188957157452123, 46.282154507116779 ], [ -63.188962079578374, 46.282323648642645 ], [ -63.188965120124479, 46.282375633222486 ], [ -63.1889975341754, 46.283144847410362 ], [ -63.189008747523637, 46.283436438865067 ], [ -63.189015359334881, 46.28359762136089 ], [ -63.189029879045407, 46.283808017828491 ], [ -63.188959537606635, 46.28404482029967 ], [ -63.188360542186615, 46.284794844703832 ], [ -63.187849096046321, 46.285427633377843 ], [ -63.18780662174904, 46.285938925256978 ], [ -63.187803531029637, 46.286118313356809 ], [ -63.18780870525525, 46.286646814247867 ], [ -63.187101401569976, 46.286828625130205 ], [ -63.186716792087751, 46.286919910170703 ], [ -63.186496203701168, 46.286947206629151 ], [ -63.185912488707551, 46.287083189636192 ], [ -63.185769810686701, 46.287128391785913 ], [ -63.185484315299625, 46.287155895093228 ], [ -63.185082091198396, 46.287219492525026 ], [ -63.184680004857647, 46.287328200184113 ], [ -63.184394607553429, 46.28738261485708 ], [ -63.184096191552584, 46.287428084328738 ], [ -63.183940391149065, 46.287428388359778 ], [ -63.183213892296394, 46.287564486651959 ], [ -63.18019970878531, 46.288224913137817 ], [ -63.179075609735811, 46.288471103819447 ], [ -63.179153715887743, 46.288542903715133 ], [ -63.182770484702182, 46.290859199091457 ], [ -63.183264810016766, 46.291155393555485 ], [ -63.184474312652959, 46.291774405250798 ], [ -63.186256098988778, 46.292698500273673 ], [ -63.18657257449776, 46.292876241075803 ], [ -63.186815387832716, 46.293012598094862 ], [ -63.187517711943393, 46.293380510758716 ], [ -63.191354993718384, 46.295435102306435 ], [ -63.193059007793082, 46.296332208946531 ] ] ] } },
{ "type": "Feature", "properties": { "FED_NUM": 11003, "ED_NAMEE": "Egmont", "ED_NAMEF": "Egmont", "REP_ORDER": "2023", "SHAPE_AREA": 2289341800.04, "SHAPE_LEN": 265720.88124399999, "NUM_CF": null, "CF_NOMFR": null, "CF_NOMAN": null, "DEC_REP": null, "PROV_CODE": "11", "PROV_NAME": "NS" }, "geometry": { "type": "Polygon", "coordinates": [ [ [ -64.446016130547576, 46.679656375331128 ], [ -64.419279180231598, 46.716272563597357 ], [ -64.404140794913772, 46.736976519756944 ], [ -64.394754004138449, 46.750072965880236 ], [ -64.394747324976521, 46.750082317681418 ], [ -64.388596740583239, 46.758659249187353 ], [ -64.383102540907771, 46.76359977026263 ], [ -64.343249554509796, 46.790716057144877 ], [ -64.316073387053734, 46.80985357080651 ], [ -64.316026733175534, 46.809767003960744 ], [ -64.313147535097116, 46.811346916442147 ], [ -64.308258415082648, 46.814673763864278 ], [ -64.288529933765858, 46.839677733722134 ], [ -64.277390703584331, 46.853774727880392 ], [ -64.27487059748897, 46.856897223859633 ], [ -64.262510870112422, 46.872342540980959 ], [ -64.25176179967697, 46.885966319285814 ], [ -64.240750661879403, 46.899912987530271 ], [ -64.239367254864547, 46.901573589147723 ], [ -64.23065155601995, 46.913021838401676 ], [ -64.210568433505415, 46.927224687108563 ], [ -64.198710340362297, 46.935604794271349 ], [ -64.164180290544749, 46.959981797147435 ], [ -64.160493471189568, 46.962582337349701 ], [ -64.157483070732184, 46.964214199414251 ], [ -64.118821972301134, 46.985153037250214 ], [ -64.100763343441713, 46.994921796850534 ], [ -64.098805326640147, 46.995980527913538 ], [ -64.098788224288285, 46.995989751280376 ], [ -64.091247450718768, 47.000066365198769 ], [ -64.091226135733052, 47.000077900181296 ], [ -64.07619049760703, 47.008202360644752 ], [ -64.069873956680453, 47.011613944127447 ], [ -64.064716565997628, 47.015714466867784 ], [ -64.064108698213275, 47.016197687857279 ], [ -64.05658998405643, 47.022173732751483 ], [ -64.034070280253957, 47.040060289133692 ], [ -64.018372043323552, 47.052517668701697 ], [ -64.00731938049492, 47.061283074011754 ], [ -64.002049725912812, 47.065460618618793 ], [ -64.000000012360317, 47.065496411765238 ], [ -63.999997142516392, 47.065496450441671 ], [ -63.979994437211289, 47.065843363789135 ], [ -63.97275956481726, 47.0659677963463 ], [ -63.972378126174171, 47.03233541331867 ], [ -63.972269955665048, 47.022788500973022 ], [ -63.972012295263212, 47.000033418937392 ], [ -63.972012242381453, 47.000030614622588 ], [ -63.971789322317235, 46.980325000955979 ], [ -63.971703507096592, 46.972735484730393 ], [ -63.971574400365988, 46.961313528304906 ], [ -63.971534413717293, 46.957774346007525 ], [ -63.971471521955451, 46.952207303406453 ], [ -63.971440059583237, 46.949420262298403 ], [ -63.971436908767807, 46.949142065107218 ], [ -63.971601802978839, 46.93875672840575 ], [ -63.971652824226808, 46.935542236766615 ], [ -63.971899120670173, 46.92002057783678 ], [ -63.972053772202436, 46.910268864334761 ], [ -63.972572206482099, 46.90617950358304 ], [ -63.972735093069531, 46.904894578455277 ], [ -63.973098321281505, 46.891715447749718 ], [ -63.973063124806842, 46.888649577733439 ], [ -63.972936164181753, 46.877591756004264 ], [ -63.973413141260224, 46.866897886918807 ], [ -63.97374833281215, 46.833706072667006 ], [ -63.973853504344689, 46.823284823637032 ], [ -63.97414257147917, 46.813023237796614 ], [ -63.975048054805917, 46.802943925979761 ], [ -63.975127462844988, 46.802337557216518 ], [ -63.977712277882851, 46.762934862323966 ], [ -63.978032386712897, 46.750027053090392 ], [ -63.978147319976308, 46.745390291763904 ], [ -63.948497614011899, 46.724113255912116 ], [ -63.907515511262631, 46.693552273813218 ], [ -63.874559579570132, 46.672139546458311 ], [ -63.866528299625408, 46.666864865714544 ], [ -63.845501142264425, 46.653046146663428 ], [ -63.820597383665294, 46.639584999710237 ], [ -63.797590347321851, 46.628207627351173 ], [ -63.758755223630949, 46.609513187302994 ], [ -63.717632802589812, 46.589642735154747 ], [ -63.692166667493566, 46.577380987724325 ], [ -63.700682294389551, 46.572099204508966 ], [ -63.700967163900714, 46.571922472744866 ], [ -63.702338245372353, 46.571071858429839 ], [ -63.709215443885292, 46.567006804415477 ], [ -63.713951369823747, 46.564206761631276 ], [ -63.723994986769846, 46.558266729430017 ], [ -63.724141166632698, 46.558244651865792 ], [ -63.728155303378976, 46.557637900177888 ], [ -63.749853037564037, 46.554354987319215 ], [ -63.769770491519431, 46.561505112431092 ], [ -63.792630425638961, 46.55159807196948 ], [ -63.797013644200085, 46.546649976846766 ], [ -63.805217722555149, 46.537213115000064 ], [ -63.806681354901656, 46.512202271418815 ], [ -63.804136892557246, 46.507617537146402 ], [ -63.800470578067213, 46.50100975971533 ], [ -63.799413899012009, 46.500053812401191 ], [ -63.799407210252284, 46.500047748552795 ], [ -63.781008168295941, 46.483394257319141 ], [ -63.780871840783391, 46.483270829518752 ], [ -63.780869500115486, 46.483268714838132 ], [ -63.774273668567076, 46.477294911696788 ], [ -63.763066440081964, 46.467035629886745 ], [ -63.762569568124313, 46.46626274107247 ], [ -63.758745945869869, 46.459885870417089 ], [ -63.758724078836572, 46.459847518689784 ], [ -63.753889760703608, 46.451371090846258 ], [ -63.75367827202593, 46.451000222400694 ], [ -63.7500896260335, 46.446234578886511 ], [ -63.746142329611203, 46.440420092881496 ], [ -63.74609737645369, 46.439798746913823 ], [ -63.745925392834884, 46.437804988800252 ], [ -63.746115187575619, 46.432275261361724 ], [ -63.746609312087138, 46.432256466663176 ], [ -63.748086146330941, 46.432200308508563 ], [ -63.748117902081937, 46.431996935693306 ], [ -63.74820749280984, 46.431423223748993 ], [ -63.747861088666426, 46.43125139450931 ], [ -63.746956503560334, 46.430780405952163 ], [ -63.746589793826757, 46.430611798645444 ], [ -63.746210306347599, 46.430461205185978 ], [ -63.744576506933477, 46.429958889897641 ], [ -63.741583804664614, 46.42906939657567 ], [ -63.741047789352116, 46.4288929088519 ], [ -63.740629619436774, 46.428769599373368 ], [ -63.73846030731702, 46.428126591839664 ], [ -63.737623804704988, 46.427861990188255 ], [ -63.737009698016209, 46.427686010912559 ], [ -63.736513511340505, 46.427563212687296 ], [ -63.734711992373128, 46.427160797990048 ], [ -63.734189995049881, 46.427056204850288 ], [ -63.733420511998368, 46.426935106051786 ], [ -63.733277213743143, 46.426927006545654 ], [ -63.731963396396047, 46.426980410709355 ], [ -63.72852991074766, 46.427164412582577 ], [ -63.727332795530074, 46.427189996910755 ], [ -63.725511703935176, 46.42726449110139 ], [ -63.724587899895141, 46.427288405757182 ], [ -63.72086749777889, 46.427428906458324 ], [ -63.71957938347456, 46.427464001389104 ], [ -63.718005406513875, 46.427527899652453 ], [ -63.716248989706017, 46.427574899426389 ], [ -63.715143795919317, 46.427653811881612 ], [ -63.714512602314791, 46.426163814309952 ], [ -63.713454112233862, 46.423839496143032 ], [ -63.713238896341728, 46.423309895343884 ], [ -63.712984398186208, 46.422753487847352 ], [ -63.712970610708936, 46.422690604851667 ], [ -63.712528593517114, 46.421730397658727 ], [ -63.711804002386167, 46.420051905469357 ], [ -63.711763702105465, 46.419953203353295 ], [ -63.711708795481705, 46.41973748846285 ], [ -63.710304104221876, 46.419791290218519 ], [ -63.710186897566913, 46.419783004244245 ], [ -63.710291816671905, 46.41884640274187 ], [ -63.710286910559503, 46.418468412294537 ], [ -63.710190582831743, 46.418063995688058 ], [ -63.71006959746213, 46.417767800284473 ], [ -63.709643512347697, 46.417023390471705 ], [ -63.708696510965311, 46.415447182895811 ], [ -63.708366796776005, 46.414898390489022 ], [ -63.708021013762867, 46.41431559489201 ], [ -63.707980799916498, 46.414225809824501 ], [ -63.707675105312148, 46.413732699029971 ], [ -63.707634911895909, 46.413643004750064 ], [ -63.706570906829832, 46.411858609679221 ], [ -63.706251610661347, 46.411311613057585 ], [ -63.706211389141856, 46.41122190819101 ], [ -63.705907914238566, 46.410718199903734 ], [ -63.705692805895097, 46.410361097882422 ], [ -63.705652698345006, 46.410271289151233 ], [ -63.704575489395978, 46.408469005608104 ], [ -63.704202413819282, 46.40777839695356 ], [ -63.703603697818231, 46.406756090046102 ], [ -63.703085391259869, 46.405904286976835 ], [ -63.702180600495659, 46.404334911712425 ], [ -63.701274903862824, 46.402693489127223 ], [ -63.700929209341936, 46.402110607771917 ], [ -63.699783806641811, 46.400029692247834 ], [ -63.699238915812231, 46.399124094273986 ], [ -63.697149403088048, 46.399505806480747 ], [ -63.696735689659704, 46.398689400128021 ], [ -63.696481684911419, 46.39815089379136 ], [ -63.696428696481661, 46.398070187906761 ], [ -63.696348298695654, 46.397890689054037 ], [ -63.696108494710131, 46.397442192613106 ], [ -63.695933998560783, 46.397020304661993 ], [ -63.695771505665142, 46.396517312777597 ], [ -63.695769895559906, 46.39639240079687 ], [ -63.695768285370924, 46.396265293849652 ], [ -63.695767602427651, 46.396211292163983 ], [ -63.695852703486729, 46.395742812626509 ], [ -63.696016395094802, 46.395318811679481 ], [ -63.696473916543717, 46.394470101430329 ], [ -63.696587894769621, 46.394226409073255 ], [ -63.697184612707744, 46.393079793512491 ], [ -63.697921995246681, 46.391743284948575 ], [ -63.698035501291649, 46.391463593261925 ], [ -63.698162398368652, 46.391219897973571 ], [ -63.698376510774864, 46.390669594638346 ], [ -63.698663591030567, 46.389722804783688 ], [ -63.698737096476933, 46.389371403991476 ], [ -63.698964295994344, 46.388829990596555 ], [ -63.699015299649894, 46.388748690798835 ], [ -63.6994965941849, 46.387737787056068 ], [ -63.69963640468886, 46.387475995165815 ], [ -63.699800807008351, 46.387115007991937 ], [ -63.70035861395715, 46.385986592473976 ], [ -63.700560395325013, 46.385490289092523 ], [ -63.700761490776038, 46.384944604490059 ], [ -63.700962596983238, 46.384398897750749 ], [ -63.701277503491163, 46.383604991540977 ], [ -63.701906107823397, 46.381918202776234 ], [ -63.701930906735562, 46.381818994643112 ], [ -63.702002301817458, 46.381305608520918 ], [ -63.702005394964416, 46.381245198496316 ], [ -63.702147897578165, 46.378460801148307 ], [ -63.702169811536905, 46.378136701671814 ], [ -63.702219300422549, 46.377947399272195 ], [ -63.702395496101303, 46.37748730033168 ], [ -63.70264981131227, 46.37703570627648 ], [ -63.703019996080201, 46.376502502871688 ], [ -63.703237786339713, 46.37624910952357 ], [ -63.703635691081232, 46.375841691458938 ], [ -63.703725795427445, 46.375769210305961 ], [ -63.704123787797769, 46.37537968949222 ], [ -63.70512641824245, 46.374473595495921 ], [ -63.7055769992214, 46.374128798137583 ], [ -63.706079695762121, 46.373783687982638 ], [ -63.70659568515876, 46.373465505560489 ], [ -63.709836803439352, 46.371735497544655 ], [ -63.71026230555637, 46.371453795584074 ], [ -63.710545213808089, 46.371218093824879 ], [ -63.710737717383189, 46.371018901486252 ], [ -63.710891219658485, 46.370828997993499 ], [ -63.711056981981685, 46.370575903713956 ], [ -63.711196602881522, 46.370314091715883 ], [ -63.711310311434758, 46.370061390146518 ], [ -63.711622608240738, 46.369078403686814 ], [ -63.71167170931168, 46.368853093447768 ], [ -63.711710093880981, 46.368807900384262 ], [ -63.711972105837233, 46.367960292395018 ], [ -63.712459795325699, 46.36647230622512 ], [ -63.712582197720366, 46.365886490665069 ], [ -63.712653213490881, 46.365346103915307 ], [ -63.712732118578309, 46.364418599881638 ], [ -63.712790995635196, 46.363950307798589 ], [ -63.712783916984769, 46.363401293596233 ], [ -63.71275529193759, 46.363203490201407 ], [ -63.712735598497297, 46.36269070952202 ], [ -63.712714416077617, 46.362498893617826 ], [ -63.712726385330548, 46.362329406928033 ], [ -63.712796184581599, 46.3622090002062 ], [ -63.712998005170746, 46.36197749278832 ], [ -63.712646512988918, 46.361836210271797 ], [ -63.711966699185069, 46.361543490845342 ], [ -63.711287208594996, 46.361268706555208 ], [ -63.711182490838247, 46.36121540645577 ], [ -63.710947496079953, 46.361135809677116 ], [ -63.710398382999166, 46.360896207109185 ], [ -63.710045686787943, 46.36076340484864 ], [ -63.708803993862809, 46.360240100596599 ], [ -63.708655549275996, 46.360172922382738 ], [ -63.708372515572968, 46.360044800598473 ], [ -63.708162890403159, 46.359920093702243 ], [ -63.707744207868032, 46.359706706772343 ], [ -63.707172201118652, 46.359394288841649 ], [ -63.706265017684146, 46.358905894202195 ], [ -63.705636288640378, 46.358540798396625 ], [ -63.705360997368039, 46.358353504607031 ], [ -63.705190089844109, 46.358210492245078 ], [ -63.705032290590516, 46.358067506040889 ], [ -63.704887298518635, 46.357906413031422 ], [ -63.704669013993751, 46.357657365016571 ], [ -63.704596995963179, 46.357575202433374 ], [ -63.704139788711828, 46.357044893356871 ], [ -63.703840092649138, 46.356567388912687 ], [ -63.703681308162857, 46.3561049159145 ], [ -63.703569406255262, 46.355718408389443 ], [ -63.703439486683365, 46.355402595484357 ], [ -63.703388889871206, 46.355022992135318 ], [ -63.703384005860137, 46.354643092562867 ], [ -63.703435192982397, 46.35418380805649 ], [ -63.703729214382385, 46.353294207970961 ], [ -63.704049915912982, 46.352421701763383 ], [ -63.704070895354278, 46.352353387646481 ], [ -63.704274522515341, 46.351691293395568 ], [ -63.704334502875959, 46.351304002190126 ], [ -63.704317713407846, 46.351007107630949 ], [ -63.704274899237539, 46.350710305609638 ], [ -63.704011500143132, 46.349433988958239 ], [ -63.703983005634242, 46.349236193496559 ], [ -63.703790204437432, 46.348391390655308 ], [ -63.703649401007851, 46.347546191284806 ], [ -63.703619814015447, 46.347267407007102 ], [ -63.703617399703639, 46.347078401158555 ], [ -63.703484053061615, 46.345857202125181 ], [ -63.703470085864595, 46.345729391530774 ], [ -63.703428410633308, 46.34551359639859 ], [ -63.703187861954135, 46.345114616196504 ], [ -63.696489042973461, 46.346431520317488 ], [ -63.693955786289585, 46.340463561171184 ], [ -63.692502827378021, 46.337068788775568 ], [ -63.694850806175474, 46.336846648547294 ], [ -63.695730679871048, 46.336260644579639 ], [ -63.695712103142235, 46.336230712078958 ], [ -63.695548906035093, 46.335968004779254 ], [ -63.695087521578216, 46.335448793824241 ], [ -63.695138697671332, 46.335385510653097 ], [ -63.695163609589251, 46.335295395831878 ], [ -63.694694396835359, 46.334155198842573 ], [ -63.693476701373768, 46.331363691267995 ], [ -63.692155297565257, 46.328572701101372 ], [ -63.69212809372074, 46.328482904951301 ], [ -63.691807588854751, 46.327791889340304 ], [ -63.691552904273436, 46.327163409356245 ], [ -63.691111602954749, 46.32616710778025 ], [ -63.690961916395707, 46.325627993595248 ], [ -63.69081999815829, 46.324674888038743 ], [ -63.690667110835548, 46.32387479738756 ], [ -63.690477207017864, 46.32323699547274 ], [ -63.690302486532836, 46.32277900425558 ], [ -63.689053780409843, 46.319546606956301 ], [ -63.688757300907206, 46.318840314311245 ], [ -63.688743604836034, 46.31875459142104 ], [ -63.688702708281021, 46.318499989679125 ], [ -63.688733606645627, 46.318251603611245 ], [ -63.688765108866349, 46.318171089671658 ], [ -63.688814210357002, 46.31807270143333 ], [ -63.688876817141029, 46.317975995960374 ], [ -63.688948708158762, 46.31788690021304 ], [ -63.689019707898801, 46.317812506435139 ], [ -63.689129890747616, 46.31771990671465 ], [ -63.689253099833905, 46.317635499724503 ], [ -63.68953081240592, 46.317493796774706 ], [ -63.689838999981433, 46.317391904327081 ], [ -63.690983213666613, 46.317093806586392 ], [ -63.691105397924105, 46.317058800420277 ], [ -63.691178414462264, 46.31703179783802 ], [ -63.691344594641116, 46.316982108336916 ], [ -63.691484702093248, 46.316943991081395 ], [ -63.691696315667144, 46.316893706544747 ], [ -63.691729443444956, 46.316884875136203 ], [ -63.691962073715736, 46.317270178504486 ], [ -63.692046165196743, 46.317521668403252 ], [ -63.692510897460075, 46.317817701622801 ], [ -63.692726803245648, 46.318051497112151 ], [ -63.693402473467302, 46.318153959886523 ], [ -63.694067858708017, 46.31817963997355 ], [ -63.695566167081054, 46.318105468843477 ], [ -63.69590745708696, 46.318211106014843 ], [ -63.696550969564541, 46.31876776297883 ], [ -63.696865961641294, 46.318884303510025 ], [ -63.697395523916754, 46.318934607889986 ], [ -63.697857494616336, 46.319138518030883 ], [ -63.698244055121819, 46.319100330586508 ], [ -63.698424676454984, 46.319042461132256 ], [ -63.698789531566923, 46.318921382307956 ], [ -63.699043929642635, 46.318842801828389 ], [ -63.699334588272208, 46.318861907316609 ], [ -63.699897951426188, 46.319151219469056 ], [ -63.700029424158579, 46.319158861868608 ], [ -63.700308771851503, 46.319168986439315 ], [ -63.701213703666838, 46.319069061255874 ], [ -63.701445211972235, 46.319060454030875 ], [ -63.701814292254213, 46.319032600067281 ], [ -63.702266963701973, 46.31905386942703 ], [ -63.703267616081632, 46.319528963286608 ], [ -63.705299768258065, 46.319764382884102 ], [ -63.704559586961743, 46.313591165886173 ], [ -63.704481388484787, 46.313605838723156 ], [ -63.704170096376437, 46.313664291655392 ], [ -63.703675943433595, 46.312523197685884 ], [ -63.710038593997965, 46.311302599736898 ], [ -63.710185599398834, 46.311344392875839 ], [ -63.710343215291836, 46.311403903808248 ], [ -63.710420485800427, 46.311432999389062 ], [ -63.716815405195256, 46.310363365954515 ], [ -63.717408750440747, 46.311762844262852 ], [ -63.72994171683245, 46.309854780538146 ], [ -63.729238055428041, 46.307273361814936 ], [ -63.729940206470395, 46.30715453193298 ], [ -63.728855279969849, 46.304159254672371 ], [ -63.723179263706108, 46.305453499162894 ], [ -63.72247294503839, 46.302845008777545 ], [ -63.719654857071603, 46.300096420445072 ], [ -63.725301981914782, 46.299118682469647 ], [ -63.723780798836756, 46.294998917988217 ], [ -63.727010716098746, 46.294434702472408 ], [ -63.728180196202892, 46.294230405022041 ], [ -63.728439414477712, 46.294192796937679 ], [ -63.729190588494454, 46.294052995237998 ], [ -63.729449785680202, 46.294015293664103 ], [ -63.72983888200131, 46.293985905902872 ], [ -63.802419900305289, 46.275213244898794 ], [ -63.804063793159997, 46.276441126983912 ], [ -63.817543982877126, 46.286319728736828 ], [ -63.823427086801004, 46.290665213801205 ], [ -63.82360537742592, 46.290796879230861 ], [ -63.833494923859661, 46.29673729821495 ], [ -63.838289960817903, 46.299366039673401 ], [ -63.845318602507497, 46.303238912261698 ], [ -63.848703294035893, 46.305103505829337 ], [ -63.863225687292349, 46.311331689680522 ], [ -63.872056913788064, 46.315009866792856 ], [ -63.884473279167537, 46.319272552226394 ], [ -63.895262189154394, 46.323002362003855 ], [ -63.905398818191259, 46.32620820505354 ], [ -63.907763325405021, 46.326858817091974 ], [ -63.930759620654143, 46.333709737994141 ], [ -63.941791354260616, 46.335973008081773 ], [ -63.941744239490291, 46.335833615020263 ], [ -63.981960334350113, 46.360579569685143 ], [ -63.999999987451915, 46.371665923627454 ], [ -64.000001516493398, 46.371666840579493 ], [ -64.00379378298814, 46.3739963045632 ], [ -64.052397350624105, 46.38137169552666 ], [ -64.063035556646668, 46.382982258582132 ], [ -64.064623705628932, 46.38322258342339 ], [ -64.082224458738722, 46.385883991857341 ], [ -64.084165814088038, 46.386174366655347 ], [ -64.109635144229571, 46.389979727624301 ], [ -64.167750739243047, 46.398634121748785 ], [ -64.16559311626979, 46.404532692762416 ], [ -64.163368233126505, 46.410288320347846 ], [ -64.154632486164047, 46.432873484779755 ], [ -64.150827580921046, 46.442623506412751 ], [ -64.146625737874245, 46.453385932517307 ], [ -64.142251575091493, 46.464584516666172 ], [ -64.138517595924242, 46.474316813755202 ], [ -64.131341273204299, 46.493009816288371 ], [ -64.128623688014173, 46.500084733261126 ], [ -64.127550544974696, 46.502877942235152 ], [ -64.124472847012967, 46.510893833248069 ], [ -64.120910323017299, 46.520169097369198 ], [ -64.118721448312058, 46.525866110927659 ], [ -64.117263887320249, 46.52965899300402 ], [ -64.115697596119233, 46.533734145067442 ], [ -64.110862295860812, 46.546309856293888 ], [ -64.107215579942334, 46.555729087406597 ], [ -64.103406358168584, 46.565902538630468 ], [ -64.10606995384731, 46.569737465820225 ], [ -64.113108350730769, 46.578273949211557 ], [ -64.113065908856612, 46.578304859036948 ], [ -64.145252688146584, 46.584440378328893 ], [ -64.180134210945823, 46.58807827352372 ], [ -64.187862956148479, 46.588897431582879 ], [ -64.212557177069002, 46.591510206968771 ], [ -64.233072425800756, 46.592413049720264 ], [ -64.27161709729836, 46.595257267075468 ], [ -64.300510978624146, 46.597378578848904 ], [ -64.308902382632979, 46.597720189955368 ], [ -64.316901088854678, 46.598045087386062 ], [ -64.327765409240996, 46.598485254114117 ], [ -64.358451071938845, 46.599721561077928 ], [ -64.363700205682932, 46.599932022859711 ], [ -64.374925810587797, 46.600381100778264 ], [ -64.428051271539729, 46.602487687475787 ], [ -64.431888462855127, 46.618746240609802 ], [ -64.436433396410223, 46.637989129642541 ], [ -64.438713461329755, 46.647636839493551 ], [ -64.442805569599713, 46.664942149871877 ], [ -64.444234954825561, 46.671494309898286 ], [ -64.446016130547576, 46.679656375331128 ] ] ] } },
{ "type": "Feature", "properties": { "FED_NUM": 11004, "ED_NAMEE": "Malpeque", "ED_NAMEF": "Malpeque", "REP_ORDER": "2023", "SHAPE_AREA": 2514132006.5300002, "SHAPE_LEN": 259789.45401700001, "NUM_CF": null, "CF_NOMFR": null, "CF_NOMAN": null, "DEC_REP": null, "PROV_CODE": "11", "PROV_NAME": "NS" }, "geometry": { "type": "Polygon", "coordinates": [ [ [ -63.805217722555149, 46.537213115000064 ], [ -63.797013644200085, 46.546649976846766 ], [ -63.792630425638961, 46.55159807196948 ], [ -63.769770491519431, 46.561505112431092 ], [ -63.749853037564037, 46.554354987319215 ], [ -63.728155303378976, 46.557637900177888 ], [ -63.724141166632698, 46.558244651865792 ], [ -63.723994986769846, 46.558266729430017 ], [ -63.713951369823747, 46.564206761631276 ], [ -63.709215443885292, 46.567006804415477 ], [ -63.702338245372353, 46.571071858429839 ], [ -63.700967163900714, 46.571922472744866 ], [ -63.700682294389551, 46.572099204508966 ], [ -63.692166667493566, 46.577380987724325 ], [ -63.648189941814302, 46.577459671856765 ], [ -63.634934771408432, 46.577479266262415 ], [ -63.631641922309534, 46.577483846676522 ], [ -63.598260312208545, 46.577521270337961 ], [ -63.580049899261766, 46.573561268912549 ], [ -63.564987830389597, 46.570282674286673 ], [ -63.563792489613313, 46.569922774016682 ], [ -63.560061372058833, 46.568799221548353 ], [ -63.541656404625918, 46.563253988224794 ], [ -63.507984743059033, 46.553096269296795 ], [ -63.500000015415225, 46.548198580940458 ], [ -63.482731016168927, 46.537600361369883 ], [ -63.480057449579448, 46.535958864453697 ], [ -63.478885677734631, 46.535658521480734 ], [ -63.419684205796834, 46.520459651321886 ], [ -63.415740681505518, 46.519445550037965 ], [ -63.412409288563182, 46.519029553181369 ], [ -63.411666063022075, 46.518936713913462 ], [ -63.362488304111309, 46.512780507340175 ], [ -63.331235900256118, 46.508853809061165 ], [ -63.299472272191508, 46.500053855510991 ], [ -63.299453048903416, 46.500048530429545 ], [ -63.274126455638743, 46.49302176716013 ], [ -63.255852237289552, 46.487980361551699 ], [ -63.250906023341024, 46.486615019114261 ], [ -63.246518673932613, 46.485403655752535 ], [ -63.236055619110026, 46.482487790352586 ], [ -63.227291041688353, 46.480044062061282 ], [ -63.190989638708309, 46.468695984505047 ], [ -63.133413750202038, 46.447146713613023 ], [ -63.133163918474452, 46.447052295383934 ], [ -63.129756266552413, 46.44564148813361 ], [ -63.124214510856838, 46.443407531396147 ], [ -63.119585467402082, 46.441537087016187 ], [ -63.114804477143323, 46.439586451869403 ], [ -63.110531011799942, 46.43786348872343 ], [ -63.10617306381338, 46.436083019816856 ], [ -63.101664111765196, 46.434280384809931 ], [ -63.097189287915242, 46.432488855995906 ], [ -63.092723499988651, 46.430714456642782 ], [ -63.090853685754084, 46.429965608935767 ], [ -63.08824937011596, 46.428922509166753 ], [ -63.083767904316879, 46.427171030049216 ], [ -63.079294996662114, 46.425407682644725 ], [ -63.076345844816004, 46.423777100798659 ], [ -63.070312588923372, 46.424363961299669 ], [ -63.064941091516587, 46.424935894781221 ], [ -63.05690895156841, 46.425790491144902 ], [ -63.051032226647173, 46.426405988241022 ], [ -63.049689380794987, 46.426552515320907 ], [ -63.048871558250994, 46.426641764113945 ], [ -63.047645211940853, 46.426775558307085 ], [ -63.046574450005181, 46.424707337880797 ], [ -63.041086064702803, 46.415111613909602 ], [ -63.039290863296699, 46.41197202552474 ], [ -63.036482124126344, 46.410069279039057 ], [ -63.017852902513816, 46.405105478587686 ], [ -63.004108567902179, 46.401306554928013 ], [ -62.999999996772473, 46.397729173494078 ], [ -62.996932709294434, 46.395057976902159 ], [ -62.992160670874874, 46.386072538112323 ], [ -62.997098150719417, 46.385606727930536 ], [ -63.00609777310148, 46.384757037932189 ], [ -63.010137304595389, 46.384375332823772 ], [ -63.014713961067898, 46.383942665980683 ], [ -63.020646338497947, 46.383381479661459 ], [ -63.026728020728015, 46.382805743000695 ], [ -63.038548324256553, 46.381681508359001 ], [ -63.038466292916198, 46.381527901907532 ], [ -63.038454811553045, 46.381505197832553 ], [ -63.038297097165596, 46.381195005643406 ], [ -63.037893421371869, 46.380457093851092 ], [ -63.036955906367034, 46.378648505760999 ], [ -63.036916899328304, 46.37855849289852 ], [ -63.036812605958438, 46.378189609886697 ], [ -63.03672119569346, 46.377667610524327 ], [ -63.036721202676581, 46.377604606566734 ], [ -63.036362385194856, 46.375352405925959 ], [ -63.036120479707364, 46.373833906590946 ], [ -63.035865985981708, 46.371943598382714 ], [ -63.035646256315772, 46.370310986684139 ], [ -63.035637108371319, 46.370243115826497 ], [ -63.035284385139242, 46.367597297925812 ], [ -63.035258301199953, 46.367507286924102 ], [ -63.035153900052045, 46.366832397765251 ], [ -63.035101717637524, 46.366652399160721 ], [ -63.03508870521005, 46.366553392016179 ], [ -63.034932303567857, 46.365995488412864 ], [ -63.033356183753121, 46.361010095736319 ], [ -63.033225899268963, 46.360497107894233 ], [ -63.033199804442724, 46.36029909892801 ], [ -63.033186595430131, 46.35998409538697 ], [ -63.033212412720253, 46.359588202483465 ], [ -63.033316011378552, 46.359030100842261 ], [ -63.033523496578383, 46.358148111468275 ], [ -63.03358831004509, 46.357950113149975 ], [ -63.033653101158116, 46.357545087628822 ], [ -63.033665903662353, 46.357239088142599 ], [ -63.033639792708726, 46.35704110492243 ], [ -63.033587687337494, 46.35684309197373 ], [ -63.03345750605876, 46.356555205426019 ], [ -63.033236311112645, 46.356186201401222 ], [ -63.031849418414062, 46.354171693879529 ], [ -63.031414982827776, 46.353540807760844 ], [ -63.031193906381503, 46.35318090977718 ], [ -63.030985797971326, 46.352919888898725 ], [ -63.030907705216094, 46.35284798945424 ], [ -63.030634614916281, 46.352533006928482 ], [ -63.030270490268428, 46.352236090362851 ], [ -63.029152382424762, 46.35146250660457 ], [ -63.02891828761949, 46.351273498498294 ], [ -63.028606306251319, 46.351012599081756 ], [ -63.028085992156761, 46.350364694425146 ], [ -63.027929895853468, 46.350094796527273 ], [ -63.027812791382139, 46.349815799486343 ], [ -63.027253400222172, 46.348682006538006 ], [ -63.027175313221505, 46.348493003982412 ], [ -63.026967212232854, 46.348106101520663 ], [ -63.02603038608995, 46.345910293654107 ], [ -63.025718199101668, 46.345253413336962 ], [ -63.024755690439434, 46.343282710758054 ], [ -63.024105290450159, 46.341905794819503 ], [ -63.023442002182975, 46.340565012243374 ], [ -63.022921793201952, 46.339629095378257 ], [ -63.02264868962957, 46.339071206690718 ], [ -63.022605512912349, 46.338958904961245 ], [ -63.022544714208799, 46.338801207593278 ], [ -63.022505582392604, 46.338612196482728 ], [ -63.022440616168609, 46.33841429531406 ], [ -63.022388500430559, 46.338207299908518 ], [ -63.022375417163744, 46.338000302702461 ], [ -63.021969884938564, 46.336800880768649 ], [ -63.02181610643396, 46.336497412792191 ], [ -63.02172069348115, 46.33638862843403 ], [ -63.021617201715593, 46.336270612822929 ], [ -63.021595102706264, 46.336245507540688 ], [ -63.021491087628291, 46.336173492264457 ], [ -63.021231204046913, 46.335930488516219 ], [ -63.021114208478068, 46.335840602035759 ], [ -63.020932194609003, 46.335651596241554 ], [ -63.020581201554073, 46.335201689750299 ], [ -63.02046421978735, 46.335012693043971 ], [ -63.019332887190529, 46.332493006852673 ], [ -63.0191378775462, 46.332088003835473 ], [ -63.019046906190844, 46.331934988061732 ], [ -63.01891679201416, 46.331467005794025 ], [ -63.018877700152764, 46.331251113173799 ], [ -63.018877480556, 46.330423102050695 ], [ -63.018851402044362, 46.330225092297702 ], [ -63.018825406835191, 46.330126110004009 ], [ -63.018591387398125, 46.329604098324332 ], [ -63.018487411208952, 46.329433201735498 ], [ -63.018279391763969, 46.32919018644241 ], [ -63.017369684901311, 46.328290307157509 ], [ -63.017213794968136, 46.328119409092743 ], [ -63.01707082021867, 46.327921398881017 ], [ -63.016226397463953, 46.328173490135178 ], [ -63.01544699865731, 46.328434613197629 ], [ -63.015356115330178, 46.328479593065445 ], [ -63.015057295788708, 46.328569696845953 ], [ -63.014667619063268, 46.328740701814468 ], [ -63.013717450822192, 46.326232659625084 ], [ -63.001945382582669, 46.328172904047655 ], [ -63.001347486240043, 46.327928201790513 ], [ -63.0012499096106, 46.327878290263634 ], [ -63.001168700090986, 46.327836906852049 ], [ -63.001014383562747, 46.327733008402838 ], [ -63.000947897263053, 46.327676803019251 ], [ -63.000835784108006, 46.327549494511032 ], [ -63.000655092624491, 46.327257691974914 ], [ -62.998389051129379, 46.327601153728295 ], [ -62.996480991288365, 46.32376113099501 ], [ -62.99479789373305, 46.322930346743291 ], [ -62.992337185964338, 46.322988998935998 ], [ -62.990636130849609, 46.3230425124314 ], [ -62.988202285874785, 46.322848237183294 ], [ -62.986421208895848, 46.321512652739386 ], [ -62.985950859012064, 46.320463102314925 ], [ -62.986692948212024, 46.319194921821087 ], [ -62.987357320664891, 46.318895749358369 ], [ -62.98779846975782, 46.317840132217057 ], [ -62.989334216347856, 46.316840377405882 ], [ -62.989803607874137, 46.315637169812945 ], [ -62.988722695323794, 46.314381207586663 ], [ -62.988077991853579, 46.31390127401604 ], [ -62.989156426321479, 46.312799315273324 ], [ -62.990082920728511, 46.311698365652006 ], [ -62.990251424329976, 46.310707748528323 ], [ -62.989789882141245, 46.309463353100504 ], [ -62.994208486642393, 46.308486256064484 ], [ -63.000000000578936, 46.307205194614006 ], [ -63.000425290138992, 46.307111081249801 ], [ -63.00226531240385, 46.307098552066734 ], [ -63.004366809700009, 46.306063953535848 ], [ -63.004971269818313, 46.305758440336184 ], [ -63.010760806734289, 46.302831772207639 ], [ -63.020345367137061, 46.297663944316419 ], [ -63.02531111843507, 46.295765152083213 ], [ -63.026291228266388, 46.295390345182106 ], [ -63.029579380760779, 46.293565865605771 ], [ -63.037275200022016, 46.289055084297743 ], [ -63.044354775005949, 46.284904197304989 ], [ -63.054008173154564, 46.279242194616479 ], [ -63.055425132277868, 46.278183802017615 ], [ -63.065051529623069, 46.270991609289268 ], [ -63.073680232273766, 46.264542133728789 ], [ -63.082256098720777, 46.270706970696665 ], [ -63.08235468257476, 46.270777847194253 ], [ -63.082464955182267, 46.270857100752494 ], [ -63.082484872237295, 46.270871699545459 ], [ -63.085441054220503, 46.278287016649458 ], [ -63.085487119960433, 46.278402431694495 ], [ -63.090915377389123, 46.287721262701851 ], [ -63.090892814452879, 46.287741295326796 ], [ -63.090277499288405, 46.288287689480981 ], [ -63.089227301043756, 46.28911649368937 ], [ -63.087723192413506, 46.290269591845117 ], [ -63.087593503343889, 46.290386705074937 ], [ -63.087398995773086, 46.290521904622622 ], [ -63.086854408487412, 46.290972301196824 ], [ -63.086750685293524, 46.29103540396418 ], [ -63.086378690461984, 46.291336095793362 ], [ -63.085979323589939, 46.291657094102987 ], [ -63.086234585455017, 46.291826898399577 ], [ -63.086328578842405, 46.291889401890309 ], [ -63.087054910518759, 46.29236219839818 ], [ -63.087360906297391, 46.292652488951987 ], [ -63.087422486971143, 46.292710991866691 ], [ -63.08767392452279, 46.29311647213386 ], [ -63.088838640842539, 46.295698088553777 ], [ -63.097682649867004, 46.294193307994171 ], [ -63.10064734867651, 46.301019437305179 ], [ -63.103237354503293, 46.300719045950942 ], [ -63.1037556718573, 46.300658897305794 ], [ -63.10468711153203, 46.302355767772418 ], [ -63.106945332839146, 46.302156058534209 ], [ -63.107792026744818, 46.303446531681857 ], [ -63.111082134899405, 46.302828976510632 ], [ -63.112601904709607, 46.305792957946458 ], [ -63.114159011526318, 46.305489013819965 ], [ -63.115291666788032, 46.305261327642043 ], [ -63.122062506762667, 46.303899897925632 ], [ -63.124567994291453, 46.306142730525913 ], [ -63.124677407066791, 46.306232138726244 ], [ -63.132549125678658, 46.30469524046962 ], [ -63.129014258519284, 46.297109917790969 ], [ -63.128500923701232, 46.295895765695626 ], [ -63.127045321813824, 46.292823126207708 ], [ -63.127584408254862, 46.290527194996621 ], [ -63.127663158656205, 46.290508829469438 ], [ -63.128595519425353, 46.290291474216694 ], [ -63.130822925337704, 46.293595724408831 ], [ -63.139575743031173, 46.291789488675768 ], [ -63.139474609348603, 46.291442197296391 ], [ -63.138402713433344, 46.287929505065044 ], [ -63.138387988472481, 46.28785260930168 ], [ -63.137716907892454, 46.285813610011822 ], [ -63.137578051111518, 46.285391656206862 ], [ -63.141404689485576, 46.284366285658407 ], [ -63.142126329238323, 46.28417293520419 ], [ -63.142841321588392, 46.285119944916133 ], [ -63.143625072643601, 46.284906058303307 ], [ -63.144456723637973, 46.285964914963692 ], [ -63.147286816249334, 46.285515586071519 ], [ -63.148115630717484, 46.287351300289025 ], [ -63.148350370004756, 46.287347994140852 ], [ -63.149560295013629, 46.287725492028564 ], [ -63.150418164113127, 46.28824964122358 ], [ -63.150871281918974, 46.288804142167407 ], [ -63.151458358622783, 46.290286511637802 ], [ -63.15231596172584, 46.290783985946597 ], [ -63.155197041859182, 46.291756140027474 ], [ -63.156056813732768, 46.292404569590616 ], [ -63.156421590234935, 46.293118869461864 ], [ -63.156526930257328, 46.293878366614614 ], [ -63.156170851217496, 46.294583309863903 ], [ -63.156087458039934, 46.294748642745041 ], [ -63.155032723405597, 46.296724335087376 ], [ -63.154865481261538, 46.297033897446568 ], [ -63.15476660045514, 46.298052340352292 ], [ -63.155224878352371, 46.298824987994095 ], [ -63.157582094345173, 46.298291540238701 ], [ -63.167534678094626, 46.29610562086576 ], [ -63.173765997670813, 46.294788365637274 ], [ -63.173775104499065, 46.294808621523444 ], [ -63.173914163423788, 46.294768901632224 ], [ -63.174153103884628, 46.295301560126937 ], [ -63.175380915623087, 46.294424576332553 ], [ -63.175946514757754, 46.29558466926423 ], [ -63.177106161309609, 46.295220872987819 ], [ -63.17788142666447, 46.29676774777711 ], [ -63.178361867237058, 46.296630918877611 ], [ -63.179805056770846, 46.299824572938718 ], [ -63.180629439223004, 46.299600953295787 ], [ -63.180852101718287, 46.300483773654726 ], [ -63.181095217786847, 46.301612219048515 ], [ -63.180975593241286, 46.302152012081201 ], [ -63.181488304511106, 46.303156299845661 ], [ -63.187752897331599, 46.30163541068994 ], [ -63.186712764742872, 46.299526052022891 ], [ -63.185964555253015, 46.299038219775014 ], [ -63.194511386848134, 46.297111271704019 ], [ -63.194144104828446, 46.296913820014325 ], [ -63.193059007793082, 46.296332208946531 ], [ -63.191354993718384, 46.295435102306435 ], [ -63.187517711943393, 46.293380510758716 ], [ -63.186815387832716, 46.293012598094862 ], [ -63.18657257449776, 46.292876241075803 ], [ -63.186256098988778, 46.292698500273673 ], [ -63.184474312652959, 46.291774405250798 ], [ -63.183264810016766, 46.291155393555485 ], [ -63.182770484702182, 46.290859199091457 ], [ -63.179153715887743, 46.288542903715133 ], [ -63.179075609735811, 46.288471103819447 ], [ -63.18019970878531, 46.288224913137817 ], [ -63.183213892296394, 46.287564486651959 ], [ -63.183940391149065, 46.287428388359778 ], [ -63.184096191552584, 46.287428084328738 ], [ -63.184394607553429, 46.28738261485708 ], [ -63.184680004857647, 46.287328200184113 ], [ -63.185082091198396, 46.287219492525026 ], [ -63.185484315299625, 46.287155895093228 ], [ -63.185769810686701, 46.287128391785913 ], [ -63.185912488707551, 46.287083189636192 ], [ -63.186496203701168, 46.286947206629151 ], [ -63.186716792087751, 46.286919910170703 ], [ -63.187101401569976, 46.286828625130205 ], [ -63.18780870525525, 46.286646814247867 ], [ -63.187803531029637, 46.286118313356809 ], [ -63.18780662174904, 46.285938925256978 ], [ -63.187849096046321, 46.285427633377843 ], [ -63.188360542186615, 46.284794844703832 ], [ -63.188959537606635, 46.28404482029967 ], [ -63.189029879045407, 46.283808017828491 ], [ -63.189015359334881, 46.28359762136089 ], [ -63.189008747523637, 46.283436438865067 ], [ -63.1889975341754, 46.283144847410362 ], [ -63.188965120124479, 46.282375633222486 ], [ -63.188962079578374, 46.282323648642645 ], [ -63.188957157452123, 46.282154507116779 ], [ -63.188960503830394, 46.282026596973729 ], [ -63.188963356959256, 46.281871048836344 ], [ -63.188971226191981, 46.281460332433234 ], [ -63.18898045013912, 46.281002185412277 ], [ -63.188981287119233, 46.280956895493553 ], [ -63.18901467880962, 46.280872388160645 ], [ -63.189070183675547, 46.280731831896894 ], [ -63.189270079275687, 46.280226133665565 ], [ -63.189333774865915, 46.280064921077617 ], [ -63.189429593965805, 46.279821656383213 ], [ -63.189491237936011, 46.279666588441081 ], [ -63.191968123369605, 46.279202344316843 ], [ -63.193082954639785, 46.278953732580355 ], [ -63.192859246459115, 46.278382925225365 ], [ -63.192796377365305, 46.277743763756355 ], [ -63.192641438740338, 46.27724623620891 ], [ -63.19627228708066, 46.276491369903482 ], [ -63.196492573258425, 46.276561936378656 ], [ -63.196261209083595, 46.276244795292612 ], [ -63.195737123104131, 46.275184694809901 ], [ -63.195732398800381, 46.274726899488336 ], [ -63.195811401641301, 46.274533793089901 ], [ -63.196486318175147, 46.273157694503034 ], [ -63.196523422481476, 46.272887995014365 ], [ -63.196726900871305, 46.272073186219728 ], [ -63.196718006422827, 46.271694800657784 ], [ -63.196480690801245, 46.271513687403001 ], [ -63.195111597628177, 46.27102540779719 ], [ -63.194589692414738, 46.270908785935333 ], [ -63.193680805319588, 46.270838097429966 ], [ -63.192774696175043, 46.27104199096155 ], [ -63.192271786200003, 46.271327893205502 ], [ -63.192135495582754, 46.271519412418392 ], [ -63.191639247363369, 46.27175218620976 ], [ -63.191419364963842, 46.268854829759711 ], [ -63.188029167162099, 46.265343181758368 ], [ -63.185757397695795, 46.261700635720686 ], [ -63.184994698600605, 46.260477596243298 ], [ -63.183529300714881, 46.25840315863725 ], [ -63.18347582809389, 46.258327461613128 ], [ -63.183065596082507, 46.257746665425685 ], [ -63.181167157913009, 46.25505889522168 ], [ -63.177346540880322, 46.24996956666326 ], [ -63.17666141722421, 46.249582375012928 ], [ -63.16770384303306, 46.244518890578931 ], [ -63.166072332982786, 46.243561157258469 ], [ -63.160907974910202, 46.239494683448136 ], [ -63.159478831108416, 46.238369198054379 ], [ -63.158271651487667, 46.237418453512696 ], [ -63.158239352682699, 46.237389603582436 ], [ -63.151488634991324, 46.231358011946384 ], [ -63.149463080970186, 46.229547854727002 ], [ -63.148794868966192, 46.228950627068706 ], [ -63.14815734422308, 46.228346012759282 ], [ -63.14552346709403, 46.225848018639219 ], [ -63.136348206188643, 46.217143511642909 ], [ -63.138115727559445, 46.215465808958257 ], [ -63.144677926029246, 46.210901885839242 ], [ -63.144331816062923, 46.210690367105855 ], [ -63.136303614837416, 46.206225128398373 ], [ -63.132388012997367, 46.202607143918506 ], [ -63.12798890821098, 46.198541570961261 ], [ -63.12788625546419, 46.198446689774691 ], [ -63.123768652474261, 46.19283054226959 ], [ -63.122925095830198, 46.191679840074514 ], [ -63.121980830914943, 46.187763457977084 ], [ -63.120003798132302, 46.178124846046671 ], [ -63.112600877233284, 46.141999423553649 ], [ -63.109138232011723, 46.125083447205384 ], [ -63.102233131479252, 46.091314978054186 ], [ -63.099721130400802, 46.0790186672833 ], [ -63.11606404328618, 46.056341775104116 ], [ -63.132950866167583, 46.032885024526088 ], [ -63.146205932775239, 46.015208924561158 ], [ -63.146209150013647, 46.015204651424945 ], [ -63.275409447914306, 46.052358706942556 ], [ -63.275645440841494, 46.052426363812607 ], [ -63.275881371113421, 46.052494111557813 ], [ -63.330463590696922, 46.068143146593442 ], [ -63.33069973721603, 46.068210745504743 ], [ -63.330768947821099, 46.068230553827384 ], [ -63.330943083583605, 46.068252831184878 ], [ -63.348110383559941, 46.070446498492061 ], [ -63.348361239988272, 46.070478533331887 ], [ -63.348611841681503, 46.070511580899428 ], [ -63.418191730942276, 46.079660546655383 ], [ -63.483481834566398, 46.088447900587006 ], [ -63.483732646765191, 46.088481568092433 ], [ -63.483983459345559, 46.088515234914624 ], [ -63.488684305568476, 46.089145976324083 ], [ -63.499995001053186, 46.090530083252048 ], [ -63.500000011296024, 46.090530680374243 ], [ -63.53233206704131, 46.09447904822467 ], [ -63.532583725245146, 46.094509744657287 ], [ -63.532835383798115, 46.094540440401268 ], [ -63.579253310208415, 46.100187618809493 ], [ -63.583287502291448, 46.099515990308547 ], [ -63.58353601957667, 46.099474600643575 ], [ -63.583784520695389, 46.099433233234627 ], [ -63.602386888902537, 46.096333578991086 ], [ -63.614472830844171, 46.093159721205481 ], [ -63.614476979291695, 46.093158620049685 ], [ -63.614711611238391, 46.093096991749249 ], [ -63.614853120459301, 46.093241059230181 ], [ -63.614859758861215, 46.093247840893291 ], [ -63.648167377350333, 46.127131659735454 ], [ -63.648311747259541, 46.127278397671788 ], [ -63.648456118126781, 46.127425135473736 ], [ -63.660707402426453, 46.139873322170345 ], [ -63.660851855556793, 46.14002004842505 ], [ -63.660996276643338, 46.140166763648125 ], [ -63.67909425231403, 46.158540765343751 ], [ -63.700448144250352, 46.180197953097078 ], [ -63.700592861202033, 46.180344642212511 ], [ -63.704902015208702, 46.184712071782698 ], [ -63.713139501780773, 46.193058167220599 ], [ -63.740016295225679, 46.220264307905879 ], [ -63.740130987483383, 46.220380316758934 ], [ -63.74021892617516, 46.220469289288395 ], [ -63.740362977322789, 46.220614988896202 ], [ -63.746269689469308, 46.226588855299006 ], [ -63.749119118586272, 46.229546373473134 ], [ -63.768862406343104, 46.250022684571945 ], [ -63.768863489221722, 46.250023770654458 ], [ -63.769868969386138, 46.251066038393724 ], [ -63.793564510403023, 46.268597184469741 ], [ -63.802419900305289, 46.275213244898794 ], [ -63.72983888200131, 46.293985905902872 ], [ -63.729449785680202, 46.294015293664103 ], [ -63.729190588494454, 46.294052995237998 ], [ -63.728439414477712, 46.294192796937679 ], [ -63.728180196202892, 46.294230405022041 ], [ -63.727010716098746, 46.294434702472408 ], [ -63.723780798836756, 46.294998917988217 ], [ -63.725301981914782, 46.299118682469647 ], [ -63.719654857071603, 46.300096420445072 ], [ -63.72247294503839, 46.302845008777545 ], [ -63.723179263706108, 46.305453499162894 ], [ -63.728855279969849, 46.304159254672371 ], [ -63.729940206470395, 46.30715453193298 ], [ -63.729238055428041, 46.307273361814936 ], [ -63.72994171683245, 46.309854780538146 ], [ -63.717408750440747, 46.311762844262852 ], [ -63.716815405195256, 46.310363365954515 ], [ -63.710420485800427, 46.311432999389062 ], [ -63.710343215291836, 46.311403903808248 ], [ -63.710185599398834, 46.311344392875839 ], [ -63.710038593997965, 46.311302599736898 ], [ -63.703675943433595, 46.312523197685884 ], [ -63.704170096376437, 46.313664291655392 ], [ -63.704481388484787, 46.313605838723156 ], [ -63.704559586961743, 46.313591165886173 ], [ -63.705299768258065, 46.319764382884102 ], [ -63.703267616081632, 46.319528963286608 ], [ -63.702266963701973, 46.31905386942703 ], [ -63.701814292254213, 46.319032600067281 ], [ -63.701445211972235, 46.319060454030875 ], [ -63.701213703666838, 46.319069061255874 ], [ -63.700308771851503, 46.319168986439315 ], [ -63.700029424158579, 46.319158861868608 ], [ -63.699897951426188, 46.319151219469056 ], [ -63.699334588272208, 46.318861907316609 ], [ -63.699043929642635, 46.318842801828389 ], [ -63.698789531566923, 46.318921382307956 ], [ -63.698424676454984, 46.319042461132256 ], [ -63.698244055121819, 46.319100330586508 ], [ -63.697857494616336, 46.319138518030883 ], [ -63.697395523916754, 46.318934607889986 ], [ -63.696865961641294, 46.318884303510025 ], [ -63.696550969564541, 46.31876776297883 ], [ -63.69590745708696, 46.318211106014843 ], [ -63.695566167081054, 46.318105468843477 ], [ -63.694067858708017, 46.31817963997355 ], [ -63.693402473467302, 46.318153959886523 ], [ -63.692726803245648, 46.318051497112151 ], [ -63.692510897460075, 46.317817701622801 ], [ -63.692046165196743, 46.317521668403252 ], [ -63.691962073715736, 46.317270178504486 ], [ -63.691729443444956, 46.316884875136203 ], [ -63.691696315667144, 46.316893706544747 ], [ -63.691484702093248, 46.316943991081395 ], [ -63.691344594641116, 46.316982108336916 ], [ -63.691178414462264, 46.31703179783802 ], [ -63.691105397924105, 46.317058800420277 ], [ -63.690983213666613, 46.317093806586392 ], [ -63.689838999981433, 46.317391904327081 ], [ -63.68953081240592, 46.317493796774706 ], [ -63.689253099833905, 46.317635499724503 ], [ -63.689129890747616, 46.31771990671465 ], [ -63.689019707898801, 46.317812506435139 ], [ -63.688948708158762, 46.31788690021304 ], [ -63.688876817141029, 46.317975995960374 ], [ -63.688814210357002, 46.31807270143333 ], [ -63.688765108866349, 46.318171089671658 ], [ -63.688733606645627, 46.318251603611245 ], [ -63.688702708281021, 46.318499989679125 ], [ -63.688743604836034, 46.31875459142104 ], [ -63.688757300907206, 46.318840314311245 ], [ -63.689053780409843, 46.319546606956301 ], [ -63.690302486532836, 46.32277900425558 ], [ -63.690477207017864, 46.32323699547274 ], [ -63.690667110835548, 46.32387479738756 ], [ -63.69081999815829, 46.324674888038743 ], [ -63.690961916395707, 46.325627993595248 ], [ -63.691111602954749, 46.32616710778025 ], [ -63.691552904273436, 46.327163409356245 ], [ -63.691807588854751, 46.327791889340304 ], [ -63.69212809372074, 46.328482904951301 ], [ -63.692155297565257, 46.328572701101372 ], [ -63.693476701373768, 46.331363691267995 ], [ -63.694694396835359, 46.334155198842573 ], [ -63.695163609589251, 46.335295395831878 ], [ -63.695138697671332, 46.335385510653097 ], [ -63.695087521578216, 46.335448793824241 ], [ -63.695548906035093, 46.335968004779254 ], [ -63.695712103142235, 46.336230712078958 ], [ -63.695730679871048, 46.336260644579639 ], [ -63.694850806175474, 46.336846648547294 ], [ -63.692502827378021, 46.337068788775568 ], [ -63.693955786289585, 46.340463561171184 ], [ -63.696489042973461, 46.346431520317488 ], [ -63.703187861954135, 46.345114616196504 ], [ -63.703428410633308, 46.34551359639859 ], [ -63.703470085864595, 46.345729391530774 ], [ -63.703484053061615, 46.345857202125181 ], [ -63.703617399703639, 46.347078401158555 ], [ -63.703619814015447, 46.347267407007102 ], [ -63.703649401007851, 46.347546191284806 ], [ -63.703790204437432, 46.348391390655308 ], [ -63.703983005634242, 46.349236193496559 ], [ -63.704011500143132, 46.349433988958239 ], [ -63.704274899237539, 46.350710305609638 ], [ -63.704317713407846, 46.351007107630949 ], [ -63.704334502875959, 46.351304002190126 ], [ -63.704274522515341, 46.351691293395568 ], [ -63.704070895354278, 46.352353387646481 ], [ -63.704049915912982, 46.352421701763383 ], [ -63.703729214382385, 46.353294207970961 ], [ -63.703435192982397, 46.35418380805649 ], [ -63.703384005860137, 46.354643092562867 ], [ -63.703388889871206, 46.355022992135318 ], [ -63.703439486683365, 46.355402595484357 ], [ -63.703569406255262, 46.355718408389443 ], [ -63.703681308162857, 46.3561049159145 ], [ -63.703840092649138, 46.356567388912687 ], [ -63.704139788711828, 46.357044893356871 ], [ -63.704596995963179, 46.357575202433374 ], [ -63.704669013993751, 46.357657365016571 ], [ -63.704887298518635, 46.357906413031422 ], [ -63.705032290590516, 46.358067506040889 ], [ -63.705190089844109, 46.358210492245078 ], [ -63.705360997368039, 46.358353504607031 ], [ -63.705636288640378, 46.358540798396625 ], [ -63.706265017684146, 46.358905894202195 ], [ -63.707172201118652, 46.359394288841649 ], [ -63.707744207868032, 46.359706706772343 ], [ -63.708162890403159, 46.359920093702243 ], [ -63.708372515572968, 46.360044800598473 ], [ -63.708655549275996, 46.360172922382738 ], [ -63.708803993862809, 46.360240100596599 ], [ -63.710045686787943, 46.36076340484864 ], [ -63.710398382999166, 46.360896207109185 ], [ -63.710947496079953, 46.361135809677116 ], [ -63.711182490838247, 46.36121540645577 ], [ -63.711287208594996, 46.361268706555208 ], [ -63.711966699185069, 46.361543490845342 ], [ -63.712646512988918, 46.361836210271797 ], [ -63.712998005170746, 46.36197749278832 ], [ -63.712796184581599, 46.3622090002062 ], [ -63.712726385330548, 46.362329406928033 ], [ -63.712714416077617, 46.362498893617826 ], [ -63.712735598497297, 46.36269070952202 ], [ -63.71275529193759, 46.363203490201407 ], [ -63.712783916984769, 46.363401293596233 ], [ -63.712790995635196, 46.363950307798589 ], [ -63.712732118578309, 46.364418599881638 ], [ -63.712653213490881, 46.365346103915307 ], [ -63.712582197720366, 46.365886490665069 ], [ -63.712459795325699, 46.36647230622512 ], [ -63.711972105837233, 46.367960292395018 ], [ -63.711710093880981, 46.368807900384262 ], [ -63.71167170931168, 46.368853093447768 ], [ -63.711622608240738, 46.369078403686814 ], [ -63.711310311434758, 46.370061390146518 ], [ -63.711196602881522, 46.370314091715883 ], [ -63.711056981981685, 46.370575903713956 ], [ -63.710891219658485, 46.370828997993499 ], [ -63.710737717383189, 46.371018901486252 ], [ -63.710545213808089, 46.371218093824879 ], [ -63.71026230555637, 46.371453795584074 ], [ -63.709836803439352, 46.371735497544655 ], [ -63.70659568515876, 46.373465505560489 ], [ -63.706079695762121, 46.373783687982638 ], [ -63.7055769992214, 46.374128798137583 ], [ -63.70512641824245, 46.374473595495921 ], [ -63.704123787797769, 46.37537968949222 ], [ -63.703725795427445, 46.375769210305961 ], [ -63.703635691081232, 46.375841691458938 ], [ -63.703237786339713, 46.37624910952357 ], [ -63.703019996080201, 46.376502502871688 ], [ -63.70264981131227, 46.37703570627648 ], [ -63.702395496101303, 46.37748730033168 ], [ -63.702219300422549, 46.377947399272195 ], [ -63.702169811536905, 46.378136701671814 ], [ -63.702147897578165, 46.378460801148307 ], [ -63.702005394964416, 46.381245198496316 ], [ -63.702002301817458, 46.381305608520918 ], [ -63.701930906735562, 46.381818994643112 ], [ -63.701906107823397, 46.381918202776234 ], [ -63.701277503491163, 46.383604991540977 ], [ -63.700962596983238, 46.384398897750749 ], [ -63.700761490776038, 46.384944604490059 ], [ -63.700560395325013, 46.385490289092523 ], [ -63.70035861395715, 46.385986592473976 ], [ -63.699800807008351, 46.387115007991937 ], [ -63.69963640468886, 46.387475995165815 ], [ -63.6994965941849, 46.387737787056068 ], [ -63.699015299649894, 46.388748690798835 ], [ -63.698964295994344, 46.388829990596555 ], [ -63.698737096476933, 46.389371403991476 ], [ -63.698663591030567, 46.389722804783688 ], [ -63.698376510774864, 46.390669594638346 ], [ -63.698162398368652, 46.391219897973571 ], [ -63.698035501291649, 46.391463593261925 ], [ -63.697921995246681, 46.391743284948575 ], [ -63.697184612707744, 46.393079793512491 ], [ -63.696587894769621, 46.394226409073255 ], [ -63.696473916543717, 46.394470101430329 ], [ -63.696016395094802, 46.395318811679481 ], [ -63.695852703486729, 46.395742812626509 ], [ -63.695767602427651, 46.396211292163983 ], [ -63.695768285370924, 46.396265293849652 ], [ -63.695769895559906, 46.39639240079687 ], [ -63.695771505665142, 46.396517312777597 ], [ -63.695933998560783, 46.397020304661993 ], [ -63.696108494710131, 46.397442192613106 ], [ -63.696348298695654, 46.397890689054037 ], [ -63.696428696481661, 46.398070187906761 ], [ -63.696481684911419, 46.39815089379136 ], [ -63.696735689659704, 46.398689400128021 ], [ -63.697149403088048, 46.399505806480747 ], [ -63.699238915812231, 46.399124094273986 ], [ -63.699783806641811, 46.400029692247834 ], [ -63.700929209341936, 46.402110607771917 ], [ -63.701274903862824, 46.402693489127223 ], [ -63.702180600495659, 46.404334911712425 ], [ -63.703085391259869, 46.405904286976835 ], [ -63.703603697818231, 46.406756090046102 ], [ -63.704202413819282, 46.40777839695356 ], [ -63.704575489395978, 46.408469005608104 ], [ -63.705652698345006, 46.410271289151233 ], [ -63.705692805895097, 46.410361097882422 ], [ -63.705907914238566, 46.410718199903734 ], [ -63.706211389141856, 46.41122190819101 ], [ -63.706251610661347, 46.411311613057585 ], [ -63.706570906829832, 46.411858609679221 ], [ -63.707634911895909, 46.413643004750064 ], [ -63.707675105312148, 46.413732699029971 ], [ -63.707980799916498, 46.414225809824501 ], [ -63.708021013762867, 46.41431559489201 ], [ -63.708366796776005, 46.414898390489022 ], [ -63.708696510965311, 46.415447182895811 ], [ -63.709643512347697, 46.417023390471705 ], [ -63.71006959746213, 46.417767800284473 ], [ -63.710190582831743, 46.418063995688058 ], [ -63.710286910559503, 46.418468412294537 ], [ -63.710291816671905, 46.41884640274187 ], [ -63.710186897566913, 46.419783004244245 ], [ -63.710304104221876, 46.419791290218519 ], [ -63.711708795481705, 46.41973748846285 ], [ -63.711763702105465, 46.419953203353295 ], [ -63.711804002386167, 46.420051905469357 ], [ -63.712528593517114, 46.421730397658727 ], [ -63.712970610708936, 46.422690604851667 ], [ -63.712984398186208, 46.422753487847352 ], [ -63.713238896341728, 46.423309895343884 ], [ -63.713454112233862, 46.423839496143032 ], [ -63.714512602314791, 46.426163814309952 ], [ -63.715143795919317, 46.427653811881612 ], [ -63.716248989706017, 46.427574899426389 ], [ -63.718005406513875, 46.427527899652453 ], [ -63.71957938347456, 46.427464001389104 ], [ -63.72086749777889, 46.427428906458324 ], [ -63.724587899895141, 46.427288405757182 ], [ -63.725511703935176, 46.42726449110139 ], [ -63.727332795530074, 46.427189996910755 ], [ -63.72852991074766, 46.427164412582577 ], [ -63.731963396396047, 46.426980410709355 ], [ -63.733277213743143, 46.426927006545654 ], [ -63.733420511998368, 46.426935106051786 ], [ -63.734189995049881, 46.427056204850288 ], [ -63.734711992373128, 46.427160797990048 ], [ -63.736513511340505, 46.427563212687296 ], [ -63.737009698016209, 46.427686010912559 ], [ -63.737623804704988, 46.427861990188255 ], [ -63.73846030731702, 46.428126591839664 ], [ -63.740629619436774, 46.428769599373368 ], [ -63.741047789352116, 46.4288929088519 ], [ -63.741583804664614, 46.42906939657567 ], [ -63.744576506933477, 46.429958889897641 ], [ -63.746210306347599, 46.430461205185978 ], [ -63.746589793826757, 46.430611798645444 ], [ -63.746956503560334, 46.430780405952163 ], [ -63.747861088666426, 46.43125139450931 ], [ -63.74820749280984, 46.431423223748993 ], [ -63.748117902081937, 46.431996935693306 ], [ -63.748086146330941, 46.432200308508563 ], [ -63.746609312087138, 46.432256466663176 ], [ -63.746115187575619, 46.432275261361724 ], [ -63.745925392834884, 46.437804988800252 ], [ -63.74609737645369, 46.439798746913823 ], [ -63.746142329611203, 46.440420092881496 ], [ -63.7500896260335, 46.446234578886511 ], [ -63.75367827202593, 46.451000222400694 ], [ -63.753889760703608, 46.451371090846258 ], [ -63.758724078836572, 46.459847518689784 ], [ -63.758745945869869, 46.459885870417089 ], [ -63.762569568124313, 46.46626274107247 ], [ -63.763066440081964, 46.467035629886745 ], [ -63.774273668567076, 46.477294911696788 ], [ -63.780869500115486, 46.483268714838132 ], [ -63.780871840783391, 46.483270829518752 ], [ -63.781008168295941, 46.483394257319141 ], [ -63.799407210252284, 46.500047748552795 ], [ -63.799413899012009, 46.500053812401191 ], [ -63.800470578067213, 46.50100975971533 ], [ -63.804136892557246, 46.507617537146402 ], [ -63.806681354901656, 46.512202271418815 ], [ -63.805217722555149, 46.537213115000064 ] ] ] } }
]
}
